{"type": "FeatureCollection", "features": [ {"type": "Feature", "properties": {"norad_id": 34990, "name": "COSMOS 2251 DEB", "group": "cosmos-2251-debris", "lat": -12.29478753275226, "lon": 48.121257210638724, "alt_km": 754.9376429540071, "timestamp": "2025-12-27T04:40:45.900674+00:00", "meta": {"OBJECT_NAME": "COSMOS 2251 DEB", "OBJECT_ID": "1993-036AFN", "EPOCH": "2025-12-15T10:28:28.781472", "MEAN_MOTION": 14.42382837, "ECCENTRICITY": 0.00165597, "INCLINATION": 74.0457, "RA_OF_ASC_NODE": 246.3361, "ARG_OF_PERICENTER": 308.9911, "MEAN_ANOMALY": 50.977, "EPHEMERIS_TYPE": 0, "CLASSIFICATION_TYPE": "U", "NORAD_CAT_ID": 34990, "ELEMENT_SET_NO": 999, "REV_AT_EPOCH": 87385, "BSTAR": 0.00031884459, "MEAN_MOTION_DOT": 1.029e-05, "MEAN_MOTION_DDOT": 0}, "tle": {"line1": "1 34990U 93036AFN 25349.43644423  .00001029  00000+0  31884-3 0  9997", "line2": "2 34990  74.0457 246.3361 0016559 308.9911  50.9770 14.42382837873857"}}, "geometry": {"type": "Point", "coordinates": [48.121257210638724, -12.29478753275226]}}, {"type": "Feature", "properties": {"norad_id": 34997, "name": "COSMOS 2251 DEB", "group": "cosmos-2251-debris", "lat": 12.826008433908656, "lon": 100.2041499113344, "alt_km": 739.8064274996141, "timestamp": "2025-12-27T04:40:45.900684+00:00", "meta": {"OBJECT_NAME": "COSMOS 2251 DEB", "OBJECT_ID": "1993-036AFV", "EPOCH": "2025-12-26T11:17:38.796288", "MEAN_MOTION": 14.45709024, "ECCENTRICITY": 0.0096931, "INCLINATION": 73.8802, "RA_OF_ASC_NODE": 285.3428, "ARG_OF_PERICENTER": 258.0413, "MEAN_ANOMALY": 100.9865, "EPHEMERIS_TYPE": 0, "CLASSIFICATION_TYPE": "U", "NORAD_CAT_ID": 34997, "ELEMENT_SET_NO": 999, "REV_AT_EPOCH": 70945, "BSTAR": 0.0014067, "MEAN_MOTION_DOT": 5.252e-05, "MEAN_MOTION_DDOT": 0}, "tle": {"line1": "1 34997U 93036AFV 25360.47058792  .00005252  00000+0  14067-2 0  9994", "line2": "2 34997  73.8802 285.3428 0096931 258.0413 100.9865 14.45709024709455"}}, "geometry": {"type": "Point", "coordinates": [100.2041499113344, 12.826008433908656]}}, {"type": "Feature", "properties": {"norad_id": 34998, "name": "COSMOS 2251 DEB", "group": "cosmos-2251-debris", "lat": -54.01258403524554, "lon": -23.914667735210795, "alt_km": 722.5132418063204, "timestamp": "2025-12-27T04:40:45.900694+00:00", "meta": {"OBJECT_NAME": "COSMOS 2251 DEB", "OBJECT_ID": "1993-036AFW", "EPOCH": "2025-12-25T08:38:30.636384", "MEAN_MOTION": 14.49334819, "ECCENTRICITY": 0.0021619, "INCLINATION": 74.0105, "RA_OF_ASC_NODE": 136.2753, "ARG_OF_PERICENTER": 280.2625, "MEAN_ANOMALY": 107.2327, "EPHEMERIS_TYPE": 0, "CLASSIFICATION_TYPE": "U", "NORAD_CAT_ID": 34998, "ELEMENT_SET_NO": 999, "REV_AT_EPOCH": 87603, "BSTAR": 0.0006634, "MEAN_MOTION_DOT": 2.514e-05, "MEAN_MOTION_DDOT": 0}, "tle": {"line1": "1 34998U 93036AFW 25359.36007681  .00002514  00000+0  66340-3 0  9992", "line2": "2 34998  74.0105 136.2753 0021619 280.2625 107.2327 14.49334819876035"}}, "geometry": {"type": "Point", "coordinates": [-23.914667735210795, -54.01258403524554]}}, {"type": "Feature", "properties": {"norad_id": 35012, "name": "COSMOS 2251 DEB", "group": "cosmos-2251-debris", "lat": 15.379377498111435, "lon": 89.27867130773294, "alt_km": 792.7033903419297, "timestamp": "2025-12-27T04:40:45.900704+00:00", "meta": {"OBJECT_NAME": "COSMOS 2251 DEB", "OBJECT_ID": "1993-036AFZ", "EPOCH": "2025-12-26T11:59:42.965376", "MEAN_MOTION": 14.45566255, "ECCENTRICITY": 0.0081381, "INCLINATION": 74.021, "RA_OF_ASC_NODE": 86.0552, "ARG_OF_PERICENTER": 223.2847, "MEAN_ANOMALY": 136.19, "EPHEMERIS_TYPE": 0, "CLASSIFICATION_TYPE": "U", "NORAD_CAT_ID": 35012, "ELEMENT_SET_NO": 999, "REV_AT_EPOCH": 87760, "BSTAR": 0.00018471, "MEAN_MOTION_DOT": 6.5e-06, "MEAN_MOTION_DDOT": 0}, "tle": {"line1": "1 35012U 93036AFZ 25360.49980284  .00000650  00000+0  18471-3 0  9996", "line2": "2 35012  74.0210  86.0552 0081381 223.2847 136.1900 14.45566255877603"}}, "geometry": {"type": "Point", "coordinates": [89.27867130773294, 15.379377498111435]}}, {"type": "Feature", "properties": {"norad_id": 35014, "name": "COSMOS 2251 DEB", "group": "cosmos-2251-debris", "lat": -47.309881711711334, "lon": -146.66262443361887, "alt_km": 646.4058104302021, "timestamp": "2025-12-27T04:40:45.900714+00:00", "meta": {"OBJECT_NAME": "COSMOS 2251 DEB", "OBJECT_ID": "1993-036AGB", "EPOCH": "2025-12-22T09:43:37.618464", "MEAN_MOTION": 14.75357031, "ECCENTRICITY": 0.00066485, "INCLINATION": 73.9987, "RA_OF_ASC_NODE": 24.596, "ARG_OF_PERICENTER": 203.6446, "MEAN_ANOMALY": 156.4423, "EPHEMERIS_TYPE": 0, "CLASSIFICATION_TYPE": "U", "NORAD_CAT_ID": 35014, "ELEMENT_SET_NO": 999, "REV_AT_EPOCH": 71479, "BSTAR": 0.0015862083, "MEAN_MOTION_DOT": 0.00010749, "MEAN_MOTION_DDOT": 0}, "tle": {"line1": "1 35014U 93036AGB 25356.40529651  .00010749  00000+0  15862-2 0  9991", "line2": "2 35014  73.9987  24.5960 0006648 203.6446 156.4423 14.75357031714792"}}, "geometry": {"type": "Point", "coordinates": [-146.66262443361887, -47.309881711711334]}}, {"type": "Feature", "properties": {"norad_id": 35015, "name": "COSMOS 2251 DEB", "group": "cosmos-2251-debris", "lat": -40.66191034974018, "lon": 41.88927786684745, "alt_km": 787.6929411468846, "timestamp": "2025-12-27T04:40:45.900724+00:00", "meta": {"OBJECT_NAME": "COSMOS 2251 DEB", "OBJECT_ID": "1993-036AGC", "EPOCH": "2025-12-26T21:05:28.048704", "MEAN_MOTION": 14.46949541, "ECCENTRICITY": 0.00746092, "INCLINATION": 73.9463, "RA_OF_ASC_NODE": 208.1629, "ARG_OF_PERICENTER": 73.2368, "MEAN_ANOMALY": 302.6187, "EPHEMERIS_TYPE": 0, "CLASSIFICATION_TYPE": "U", "NORAD_CAT_ID": 35015, "ELEMENT_SET_NO": 999, "REV_AT_EPOCH": 65645, "BSTAR": 0.00070884813, "MEAN_MOTION_DOT": 2.639e-05, "MEAN_MOTION_DDOT": 0}, "tle": {"line1": "1 35015U 93036AGC 25360.87879686  .00002639  00000+0  70885-3 0  9990", "line2": "2 35015  73.9463 208.1629 0074609  73.2368 302.6187 14.46949541656451"}}, "geometry": {"type": "Point", "coordinates": [41.88927786684745, -40.66191034974018]}}, {"type": "Feature", "properties": {"norad_id": 35016, "name": "COSMOS 2251 DEB", "group": "cosmos-2251-debris", "lat": -10.804599239172, "lon": -95.40180912673623, "alt_km": 858.2146476610169, "timestamp": "2025-12-27T04:40:45.900734+00:00", "meta": {"OBJECT_NAME": "COSMOS 2251 DEB", "OBJECT_ID": "1993-036AGD", "EPOCH": "2025-12-21T05:33:15.838848", "MEAN_MOTION": 14.35075882, "ECCENTRICITY": 0.01140745, "INCLINATION": 73.9302, "RA_OF_ASC_NODE": 278.7521, "ARG_OF_PERICENTER": 193.9283, "MEAN_ANOMALY": 317.5381, "EPHEMERIS_TYPE": 0, "CLASSIFICATION_TYPE": "U", "NORAD_CAT_ID": 35016, "ELEMENT_SET_NO": 999, "REV_AT_EPOCH": 86904, "BSTAR": 0.00026149228, "MEAN_MOTION_DOT": 7.75e-06, "MEAN_MOTION_DDOT": 0}, "tle": {"line1": "1 35016U 93036AGD 25355.23143332  .00000775  00000+0  26149-3 0  9990", "line2": "2 35016  73.9302 278.7521 0114074 193.9283 317.5381 14.35075882869043"}}, "geometry": {"type": "Point", "coordinates": [-95.40180912673623, -10.804599239172]}}, {"type": "Feature", "properties": {"norad_id": 35018, "name": "COSMOS 2251 DEB", "group": "cosmos-2251-debris", "lat": 22.195443640742972, "lon": -100.55640932652462, "alt_km": 1257.0851643054184, "timestamp": "2025-12-27T04:40:45.900744+00:00", "meta": {"OBJECT_NAME": "COSMOS 2251 DEB", "OBJECT_ID": "1993-036AGF", "EPOCH": "2025-12-26T22:38:59.059968", "MEAN_MOTION": 13.67145257, "ECCENTRICITY": 0.03491573, "INCLINATION": 73.9765, "RA_OF_ASC_NODE": 86.5903, "ARG_OF_PERICENTER": 352.7011, "MEAN_ANOMALY": 6.909, "EPHEMERIS_TYPE": 0, "CLASSIFICATION_TYPE": "U", "NORAD_CAT_ID": 35018, "ELEMENT_SET_NO": 999, "REV_AT_EPOCH": 83380, "BSTAR": 0.0010289953, "MEAN_MOTION_DOT": 1.292e-05, "MEAN_MOTION_DDOT": 0}, "tle": {"line1": "1 35018U 93036AGF 25360.94373912  .00001292  00000+0  10290-2 0  9999", "line2": "2 35018  73.9765  86.5903 0349157 352.7011   6.9090 13.67145257833802"}}, "geometry": {"type": "Point", "coordinates": [-100.55640932652462, 22.195443640742972]}}, {"type": "Feature", "properties": {"norad_id": 35020, "name": "COSMOS 2251 DEB", "group": "cosmos-2251-debris", "lat": 73.6677382158401, "lon": -111.24231037079402, "alt_km": 738.7645431471792, "timestamp": "2025-12-27T04:40:45.900754+00:00", "meta": {"OBJECT_NAME": "COSMOS 2251 DEB", "OBJECT_ID": "1993-036AGH", "EPOCH": "2025-12-26T21:43:00.431040", "MEAN_MOTION": 14.62827965, "ECCENTRICITY": 0.00913225, "INCLINATION": 74.0447, "RA_OF_ASC_NODE": 171.8088, "ARG_OF_PERICENTER": 282.6602, "MEAN_ANOMALY": 76.4366, "EPHEMERIS_TYPE": 0, "CLASSIFICATION_TYPE": "U", "NORAD_CAT_ID": 35020, "ELEMENT_SET_NO": 999, "REV_AT_EPOCH": 88445, "BSTAR": 0.00019260729, "MEAN_MOTION_DOT": 1.01e-05, "MEAN_MOTION_DDOT": 0}, "tle": {"line1": "1 35020U 93036AGH 25360.90486610  .00001010  00000+0  19261-3 0  9994", "line2": "2 35020  74.0447 171.8088 0091322 282.6602  76.4366 14.62827965884455"}}, "geometry": {"type": "Point", "coordinates": [-111.24231037079402, 73.6677382158401]}}, {"type": "Feature", "properties": {"norad_id": 35022, "name": "COSMOS 2251 DEB", "group": "cosmos-2251-debris", "lat": 34.184801871226355, "lon": -54.49006954968529, "alt_km": 690.0586083041389, "timestamp": "2025-12-27T04:40:45.900765+00:00", "meta": {"OBJECT_NAME": "COSMOS 2251 DEB", "OBJECT_ID": "1993-036AGK", "EPOCH": "2025-12-25T13:04:16.912416", "MEAN_MOTION": 14.60885818, "ECCENTRICITY": 0.0046189, "INCLINATION": 74.0261, "RA_OF_ASC_NODE": 297.4455, "ARG_OF_PERICENTER": 133.747, "MEAN_ANOMALY": 226.7535, "EPHEMERIS_TYPE": 0, "CLASSIFICATION_TYPE": "U", "NORAD_CAT_ID": 35022, "ELEMENT_SET_NO": 999, "REV_AT_EPOCH": 59330, "BSTAR": 0.00049139, "MEAN_MOTION_DOT": 2.411e-05, "MEAN_MOTION_DDOT": 0}, "tle": {"line1": "1 35022U 93036AGK 25359.54464019  .00002411  00000+0  49139-3 0  9996", "line2": "2 35022  74.0261 297.4455 0046189 133.7470 226.7535 14.60885818593302"}}, "geometry": {"type": "Point", "coordinates": [-54.49006954968529, 34.184801871226355]}}]}